CZ-4B R/B               
1 28415U 04035C   25269.60356743  .00009917  00000+0  38635-3 0  9993
2 28415  97.3719 301.0226 0034555 186.5302 173.5491 15.25606911154869
CZ-2C R/B               
1 28480U 04046B   25269.75452792  .00000455  00000+0  18521-3 0  9994
2 28480  98.1912 189.9463 0138413 279.8250  78.7328 14.26886206 85121
ARIANE 5 R/B            
1 28499U 04049H   25269.83293856  .00002554  00000+0  28930-3 0  9997
2 28499  98.2482  67.3974 0085397 161.3067 199.1316 14.84742297121472
CZ-2D R/B               
1 28738U 05024B   25269.92763343  .00037273  00000+0  71438-3 0  9997
2 28738  97.3701 275.6189 0002938 255.7787 104.3137 15.47926098114352
ALOS (DAICHI)           
1 28931U 06002A   25269.87781512  .00003304  00000+0  57094-3 0  9991
2 28931  98.0951 221.9850 0002365  87.0842 273.0634 14.69074975 49425
H-2A R/B                
1 28932U 06002B   25269.76641292  .00014154  00000+0  78257-3 0  9999
2 28932  98.2246  38.3947 0057510  78.3764 282.3912 15.12573770 69622
RESURS-DK 1             
1 29228U 06021A   25269.41909489  .00003872  00000+0  23432-3 0  9996
2 29228  69.9329 301.5609 0005335 332.9897  27.0990 15.11495716 62694
CZ-4B R/B               
1 29507U 06046C   25269.64048723  .00007806  00000+0  41797-3 0  9998
2 29507  97.5858 309.9928 0036511 114.3794 246.1256 15.14720819 35194
CZ-2C R/B               
1 31114U 07010B   25269.85425932  .00000278  00000+0  14681-3 0  9999
2 31114  98.3906  26.4044 0059879  51.3510 309.3005 14.20165291956461
COSMO-SKYMED 1          
1 31598U 07023A   25269.97006175  .00005094  00000+0  47166-3 0  9991
2 31598  97.8889  94.8974 0001059  85.1854 274.9487 14.94959051990426
COSMOS 2428             
1 31792U 07029A   25269.92285968 -.00000094  00000+0 -24802-4 0  9997
2 31792  70.9433 187.1370 0003032 196.4129 163.6895 14.12902215940960
SL-16 R/B               
1 31793U 07029B   25269.89270265  .00000257  00000+0  15823-3 0  9999
2 31793  70.9756 156.6905 0002495 264.0415 172.5459 14.14792199942200
KORONAS-FOTON           
1 33504U 09003A   25269.88241346  .00016058  00000+0  41978-3 0  9998
2 33504  82.4293  85.5765 0012322  30.3922 329.8034 15.38552609920510
CZ-2C R/B               
1 37731U 11030B   25269.89442426  .00002402  00000+0  31305-3 0  9991
2 37731  97.8269 225.7843 0053665 161.7317 261.9553 14.80500966765857
H-2A R/B                
1 38341U 12025E   25269.82130722  .00005586  00000+0  52388-3 0  9990
2 38341  98.4462 219.2316 0047256 127.0051 233.5505 14.93610413723746
SHIJIAN-16 (SJ-16)      
1 39358U 13057A   25269.88143139  .00001991  00000+0  20065-3 0  9990
2 39358  74.9709 135.0351 0016617 153.7526 206.4508 14.91613498647079
SL-4 R/B                
1 39679U 14021B   25269.80275741  .00021307  00000+0  54293-3 0  9998
2 39679  51.6104  53.6652 0108165 227.6463 131.5320 15.33649045631073
ALOS-2                  
1 39766U 14029A   25269.91210123  .00003877  00000+0  52590-3 0  9998
2 39766  97.9224   5.8550 0001473 104.8439 255.2936 14.79458519612658
YAOGAN-29               
1 41038U 15069A   25269.95969524  .00000882  00000+0  11587-3 0  9992
2 41038  98.0308 292.8473 0002403 126.5137 233.6297 14.82750661531613
ASTRO-H (HITOMI)        
1 41337U 16012A   25269.62912683  .00005408  00000+0  33122-3 0  9999
2 41337  31.0014 334.2114 0010043 124.9830 235.1752 15.08613782527428
HXMT (HUIYAN)           
1 42758U 17034A   25269.94822672  .00008989  00000+0  47859-3 0  9994
2 42758  43.0137 205.3565 0034837 280.6079  79.0846 15.14926172457681
CZ-2C R/B               
1 43521U 18054D   25269.61347911  .00072265  00000+0  84587-3 0  9995
2 43521  35.1381 337.9019 0030154 130.2295 230.1079 15.59787706402952
SAOCOM 1A               
1 43641U 18076A   25269.50730852  .00000997  00000+0  13177-3 0  9990
2 43641  97.8895  95.0375 0001379  91.2497 268.8874 14.82169991377041
H-2A R/B                
1 43682U 18084L   25269.46985853  .00027689  00000+0  84416-3 0  9993
2 43682  98.8842  87.7709 0029802 229.6910 130.1723 15.33496950380544
SAOCOM 1B               
1 46265U 20059A   25269.94368676  .00000032  00000+0  10527-4 0  9995
2 46265  97.8883  94.5740 0001310  99.7117 260.4244 14.82149978274497
CSS (TIANHE)            
1 48274U 21035A   25269.64053398  .00037996  00000+0  45295-3 0  9999
2 48274  41.4633 125.4346 0001533  93.6187 266.4827 15.60328329251988
COSMOS 2550             
1 48865U 21056A   25269.19425050 -.00000173  00000+0  57214-6 0  9991
2 48865  67.1434 178.5553 0008418 269.4644  90.5546 15.33835277238239
CZ-2C R/B               
1 52794U 22058K   25269.62713110  .00030481  00000+0  64303-3 0  9993
2 52794  50.1920  75.2562 0053767 235.9574 123.6281 15.43355969184709
GSLV R/B                
1 54149U 22138AN  25269.92205864  .00006130  00000+0  54980-3 0  9997
2 54149  87.3822 221.1740 0023567  33.2830 326.9877 14.95389888159442
XRISM                   
1 57800U 23137A   25269.34862701  .00008767  00000+0  53363-3 0  9991
2 57800  31.0021 264.7561 0008481 189.6343 170.4133 15.09083121112929
ACS3                    
1 59588U 24077B   25269.86232316  .00015592  00000+0  14632-1 0  9998
2 59588  97.3877 242.3400 0035671 333.7371  26.1978 13.81255455 71518
